NORAD_CAT_ID,OBJECT_NAME,OBJECT_TYPE,EPOCH,MEAN_MOTION,ECCENTRICITY,INCLINATION,RA_OF_ASC_NODE,ARG_OF_PERICENTER,MEAN_ANOMALY,BSTAR,MEAN_MOTION_DOT,MEAN_MOTION_DDOT,TLE_LINE0,TLE_LINE1,TLE_LINE2,SEMIMAJOR_AXIS,PERIOD,APOGEE,PERIGEE,DECAYED
49154.0,STARLINK-3068,PAYLOAD,2023-04-16 02:43:17,14.98329892,0.0002908,70.0011,63.4924,270.8713,89.2112,-2.9742e-05,-4.48e-06,0.0,0 STARLINK-3068,1 49154U 21082AA  23106.11339852 -.00000448  00000-0 -29742-4 0  9996,2 49154  70.0011  63.4924 0002908 270.8713  89.2112 14.98329892 88980,6950.193,96.107,574.079,570.037,0.0
49154.0,STARLINK-3068,PAYLOAD,2023-04-16 07:31:41,14.98333649,0.0002822,70.0014,62.9874,270.8622,89.2214,6.1393e-05,6.4e-06,0.0,0 STARLINK-3068,1 49154U 21082AA  23106.31367359  .00000640  00000-0  61393-4 0  9991,2 49154  70.0014  62.9874 0002822 270.8622  89.2214 14.98333649 89018,6950.182,96.107,574.008,570.085,0.0
49154.0,STARLINK-3068,PAYLOAD,2023-04-16 21:56:54,14.98326176,0.000275,70.0021,61.474,270.9366,89.1478,-7.0231e-07,-1.01e-06,0.0,0 STARLINK-3068,1 49154U 21082AA  23106.91451927 -.00000101  00000-0 -70231-6 0  9999,2 49154  70.0021  61.4740 0002750 270.9366  89.1478 14.98326176 89106,6950.205,96.107,573.981,570.158,0.0
49154.0,STARLINK-3068,PAYLOAD,2023-04-17 05:57:34,14.98331765,0.0002595,70.0017,60.6307,272.8636,87.2226,-4.3131e-05,-6.08e-06,0.0,0 STARLINK-3068,1 49154U 21082AA  23107.24831742 -.00000608  00000-0 -43131-4 0  9992,2 49154  70.0017  60.6307 0002595 272.8636  87.2226 14.98331765 89154,6950.187,96.107,573.856,570.249,0.0
49154.0,STARLINK-3068,PAYLOAD,2023-04-17 21:58:55,14.98321384,0.0002498,70.0017,58.9475,268.2215,91.8658,0.0002366,2.731e-05,0.0,0 STARLINK-3068,1 49154U 21082AA  23107.91591581  .00002731  00000-0  23660-3 0  9991,2 49154  70.0017  58.9475 0002498 268.2215  91.8658 14.98321384 89251,6950.22,96.108,573.821,570.348,0.0
49154.0,STARLINK-3068,PAYLOAD,2023-04-18 02:47:19,14.98336948,0.0002403,70.0019,58.4426,262.7963,97.2923,1.588e-05,9.7e-07,0.0,0 STARLINK-3068,1 49154U 21082AA  23108.11619217  .00000097  00000-0  15880-4 0  9990,2 49154  70.0019  58.4426 0002403 262.7963  97.2923 14.98336948 89289,6950.171,96.107,573.707,570.366,0.0
49154.0,STARLINK-3068,PAYLOAD,2023-04-18 04:23:27,14.98335237,0.0002398,70.0019,58.2742,262.4015,97.6872,2.0333e-05,1.5e-06,0.0,0 STARLINK-3068,1 49154U 21082AA  23108.18295298  .00000150  00000-0  20333-4 0  9995,2 49154  70.0019  58.2742 0002398 262.4015  97.6872 14.98335237 89294,6950.177,96.107,573.708,570.375,0.0
49154.0,STARLINK-3068,PAYLOAD,2023-04-19 02:49:20,14.98327351,0.0002853,70.0015,55.9194,269.4658,90.6174,1.8955e-05,1.33e-06,0.0,0 STARLINK-3068,1 49154U 21082AA  23109.11759955  .00000133  00000-0  18955-4 0  9992,2 49154  70.0015  55.9194 0002853 269.4658  90.6174 14.98327351 89433,6950.201,96.107,574.049,570.083,0.0
49154.0,STARLINK-3068,PAYLOAD,2023-04-19 06:01:36,14.98327631,0.0002815,70.0017,55.5826,270.4161,89.6675,7.9217e-05,8.52e-06,0.0,0 STARLINK-3068,1 49154U 21082AA  23109.25111829  .00000852  00000-0  79217-4 0  9995,2 49154  70.0017  55.5826 0002815 270.4161  89.6675 14.98327631 89459,6950.2,96.107,574.022,570.109,0.0
49154.0,STARLINK-3068,PAYLOAD,2023-04-20 02:51:20,14.98335363,0.0002697,70.0014,53.394,266.6443,93.4408,8.2824e-05,8.96e-06,0.0,0 STARLINK-3068,1 49154U 21082AA  23110.11899247  .00000896  00000-0  82824-4 0  9995,2 49154  70.0014  53.3940 0002697 266.6443  93.4408 14.98335363 89589,6950.176,96.107,573.916,570.167,0.0
49154.0,STARLINK-3068,PAYLOAD,2023-04-20 06:03:36,14.98337569,0.0002681,70.0014,53.0573,266.692,93.3932,5.5463e-05,5.69e-06,0.0,0 STARLINK-3068,1 49154U 21082AA  23110.25251133  .00000569  00000-0  55463-4 0  9992,2 49154  70.0014  53.0573 0002681 266.6920  93.3932 14.98337569 89605,6950.169,96.107,573.898,570.171,0.0
49154.0,STARLINK-3068,PAYLOAD,2023-04-21 02:53:23,14.98318767,0.0002558,70.0017,50.8699,260.3436,99.7434,1.7093e-05,1.11e-06,0.0,0 STARLINK-3068,1 49154U 21082AA  23111.12040582  .00000111  00000-0  17093-4 0  9993,2 49154  70.0017  50.8699 0002558 260.3436  99.7434 14.98318767 89738,6950.228,96.108,573.87,570.315,0.0
49154.0,STARLINK-3068,PAYLOAD,2023-04-21 06:05:39,14.98318748,0.000273,70.0018,50.5335,265.6996,94.3851,4.7861e-06,-3.6e-07,0.0,0 STARLINK-3068,1 49154U 21082AA  23111.25392702 -.00000036  00000-0  47861-5 0  9995,2 49154  70.0018  50.5335 0002730 265.6996  94.3851 14.98318748 89759,6950.228,96.108,573.99,570.195,0.0
49154.0,STARLINK-3068,PAYLOAD,2023-04-23 04:33:32,14.98328558,0.0002791,70.0017,45.6506,269.4003,90.6837,8.9785e-05,9.78e-06,0.0,0 STARLINK-3068,1 49154U 21082AA  23113.18995456  .00000978  00000-0  89785-4 0  9998,2 49154  70.0017  45.6506 0002791 269.4003  90.6837 14.98328558 90048,6950.197,96.107,574.002,570.123,0.0
49154.0,STARLINK-3068,PAYLOAD,2023-04-23 06:09:39,14.98331998,0.0002918,70.0009,45.4821,270.74,89.3425,0.00012881,1.444e-05,0.0,0 STARLINK-3068,1 49154U 21082AA  23113.25671117  .00001444  00000-0  12881-3 0  9992,2 49154  70.0009  45.4821 0002918 270.7400  89.3425 14.98331998 90055,6950.187,96.107,574.08,570.024,0.0
49154.0,STARLINK-3068,PAYLOAD,2023-04-24 06:11:38,14.98367332,0.0003156,70.0013,42.9572,264.3536,95.7263,0.00025073,2.903e-05,0.0,0 STARLINK-3068,1 49154U 21082AA  23114.25808035  .00002903  00000-0  25073-3 0  9992,2 49154  70.0013  42.9572 0003156 264.3536  95.7263 14.98367332 90208,6950.077,96.105,574.136,569.749,0.0
49154.0,STARLINK-3068,PAYLOAD,2023-04-25 03:01:26,14.98311243,0.0003011,70.0011,40.7701,273.5706,86.5108,-0.00027486,-3.369e-05,0.0,0 STARLINK-3068,1 49154U 21082AA  23115.12599692 -.00003369  00000-0 -27486-3 0  9994,2 49154  70.0011  40.7701 0003011 273.5706  86.5108 14.98311243 90337,6950.251,96.108,574.209,570.023,0.0
49154.0,STARLINK-3068,PAYLOAD,2023-04-25 06:13:42,14.98314174,0.000305,70.0011,40.4331,272.8314,87.2496,-0.00023901,-2.942e-05,0.0,0 STARLINK-3068,1 49154U 21082AA  23115.25951423 -.00002942  00000-0 -23901-3 0  9996,2 49154  70.0011  40.4331 0003050 272.8314  87.2496 14.98314174 90359,6950.242,96.108,574.227,569.987,0.0
49154.0,STARLINK-3068,PAYLOAD,2023-04-26 04:39:36,14.98310673,0.0002839,70.0014,38.0776,273.5631,86.5204,-0.00031158,-3.807e-05,0.0,0 STARLINK-3068,1 49154U 21082AA  23116.19416968 -.00003807  00000-0 -31158-3 0  9994,2 49154  70.0014  38.0776 0002839 273.5631  86.5204 14.98310673 90496,6950.253,96.108,574.091,570.144,0.0
49154.0,STARLINK-3068,PAYLOAD,2023-04-26 17:28:40,14.9831561,0.0002922,70.0007,36.7294,255.236,104.8475,-0.00012225,-1.551e-05,0.0,0 STARLINK-3068,1 49154U 21082AA  23116.72824661 -.00001551  00000-0 -12225-3 0  9994,2 49154  70.0007  36.7294 0002922 255.2360 104.8475 14.98315610 90576,6950.237,96.108,574.133,570.072,0.0
49154.0,STARLINK-3068,PAYLOAD,2023-04-27 01:29:20,14.98336393,0.000259,70.0015,35.892,265.6407,94.4456,-0.00030642,-3.748e-05,0.0,0 STARLINK-3068,1 49154U 21082AA  23117.06204005 -.00003748  00000-0 -30642-3 0  9999,2 49154  70.0015  35.8920 0002590 265.6407  94.4456 14.98336393 90629,6950.173,96.107,573.838,570.238,0.0
49154.0,STARLINK-3068,PAYLOAD,2023-04-27 04:41:35,14.98360757,0.000295,70.0002,35.5519,278.7451,81.3374,-0.00065936,-7.958e-05,0.0,0 STARLINK-3068,1 49154U 21082AA  23117.19555490 -.00007958  00000-0 -65936-3 0  9991,2 49154  70.0002  35.5519 0002950 278.7451  81.3374 14.98360757 90647,6950.098,96.105,574.013,569.913,0.0
49154.0,STARLINK-3068,PAYLOAD,2023-04-27 20:42:56,14.9833281,0.0003136,69.9997,33.8686,274.9994,85.0807,0.000289,3.357e-05,0.0,0 STARLINK-3068,1 49154U 21082AA  23117.86315161  .00003357  00000-0  28900-3 0  9991,2 49154  69.9997  33.8686 0003136 274.9994  85.0807 14.98332810 90742,6950.184,96.107,574.229,569.87,0.0
49154.0,STARLINK-3068,PAYLOAD,2023-04-28 11:08:09,14.98325471,0.0002051,70.0044,32.353,294.9659,65.1286,0.00029103,3.381e-05,0.0,0 STARLINK-3068,1 49154U 21082AA  23118.46399899  .00003381  00000-0  29103-3 0  9991,2 49154  70.0044  32.3530 0002051 294.9659  65.1286 14.98325471 90830,6950.207,96.107,573.497,570.646,0.0
49154.0,STARLINK-3068,PAYLOAD,2023-04-29 03:09:30,14.98326853,0.0002245,70.0017,30.6723,266.6654,93.4248,8.6966e-06,1.1e-07,0.0,0 STARLINK-3068,1 49154U 21082AA  23119.13160211  .00000011  00000-0  86966-5 0  9999,2 49154  70.0017  30.6723 0002245 266.6654  93.4248 14.98326853 90939,6950.203,96.107,573.628,570.507,0.0
49154.0,STARLINK-3068,PAYLOAD,2023-04-29 17:34:42,14.983404,0.0002593,70.0017,29.1575,264.3227,95.7637,-0.00010675,-1.367e-05,0.0,0 STARLINK-3068,1 49154U 21082AA  23119.73243367 -.00001367  00000-0 -10675-3 0  9998,2 49154  70.0017  29.1575 0002593 264.3227  95.7637 14.98340400 91026,6950.161,96.106,573.828,570.224,0.0
49154.0,STARLINK-3068,PAYLOAD,2023-04-30 04:47:38,14.98343967,0.0002806,70.001,27.9775,266.579,93.5048,-9.7296e-05,-1.254e-05,0.0,0 STARLINK-3068,1 49154U 21082AA  23120.19974770 -.00001254  00000-0 -97296-4 0  9999,2 49154  70.0010  27.9775 0002806 266.5790  93.5048 14.98343967 91093,6950.15,96.106,573.965,570.064,0.0
49154.0,STARLINK-3068,PAYLOAD,2023-04-30 17:36:43,14.98318458,0.0003131,70.0015,26.6294,267.7649,92.3151,0.00015382,1.742e-05,0.0,0 STARLINK-3068,1 49154U 21082AA  23120.73383478  .00001742  00000-0  15382-3 0  9993,2 49154  70.0015  26.6294 0003131 267.7649  92.3151 14.98318458 91176,6950.229,96.108,574.27,569.917,0.0
49154.0,STARLINK-3068,PAYLOAD,2023-05-01 03:13:31,14.98325702,0.0002777,70.0011,25.6197,265.0701,95.0141,1.5917e-05,9.7e-07,0.0,0 STARLINK-3068,1 49154U 21082AA  23121.13439595  .00000097  00000-0  15917-4 0  9997,2 49154  70.0011  25.6197 0002777 265.0701  95.0141 14.98325702 91234,6950.206,96.107,574.001,570.141,0.0
49154.0,STARLINK-3068,PAYLOAD,2023-05-01 17:38:43,14.98326779,0.0002725,70.0011,24.1052,266.4854,93.5993,0.00015976,1.814e-05,0.0,0 STARLINK-3068,1 49154U 21082AA  23121.73523086  .00001814  00000-0  15976-3 0  9994,2 49154  70.0011  24.1052 0002725 266.4854  93.5993 14.98326779 91328,6950.203,96.107,573.962,570.174,0.0
